*******************************************************************************
JPL/HORIZONS                 433 Eros (A898 PA)            2025-Sep-08 11:34:56
Rec #:     433 (+COV) Soln.date: 2021-May-24_17:55:05   # obs: 9130 (1893-2021)
 
IAU76/J2000 helio. ecliptic osc. elements (au, days, deg., period=Julian yrs):
 
  EPOCH=  2453311.5 ! 2004-Nov-02.00 (TDB)         Residual RMS= .3494
   EC= .2228078944584026   QR= 1.133355399799004   TP= 2453371.5859943051
   OM= 304.4010273379536   W=  178.665326776373    IN= 10.8291838260782
   A= 1.458269315549994    MA= 326.37047603642     ADIST= 1.783183231300984
   PER= 1.76102            N= .559689897           ANGMOM= .020250867
   DAN= 1.78304            DDN= 1.13341            L= 123.090114
   B= .2507387             MOID= .149124           TP= 2005-Jan-01.0859943051
 
Asteroid physical parameters (km, seconds, rotational period in hours):
   GM= .0004463            RAD= 8.42               ROTPER= 5.27
   H= 10.4                 G= .460                 B-V= .921
                           ALBEDO= .250            STYP= S

ASTEROID comments: 
1: soln ref.= JPL#659, OCC=0           radar( 4 delay, 2 Dop.)
2: source=ORB
*******************************************************************************


*******************************************************************************
Ephemeris / WWW_USER Mon Sep  8 11:34:56 2025 Pasadena, USA      / Horizons
*******************************************************************************
Target body name: 433 Eros (A898 PA)              {source: JPL#659}
Center body name: Sun (10)                        {source: DE441}
Center-site name: BODY CENTER
*******************************************************************************
Start time      : A.D. 2015-Jan-01 00:00:00.0000 TDB
Stop  time      : A.D. 2022-Jan-01 00:00:00.0000 TDB
Step-size       : 1440 minutes
*******************************************************************************
Center geodetic : 0.0, 0.0, 0.0                   {E-lon(deg),Lat(deg),Alt(km)}
Center cylindric: 0.0, 0.0, 0.0                   {E-lon(deg),Dxy(km),Dz(km)}
Center radii    : 695700.0, 695700.0, 695700.0 km {Equator_a, b, pole_c}
Small perturbers: Yes                             {source: SB441-N16}
Output units    : KM-S
Calendar mode   : Mixed Julian/Gregorian
Output type     : GEOMETRIC cartesian states
Output format   : 3 (position, velocity, LT, range, range-rate)
Reference frame : Ecliptic of J2000.0
*******************************************************************************
Initial IAU76/J2000 heliocentric ecliptic osculating elements (au, days, deg.):
  EPOCH=  2453311.5 ! 2004-Nov-02.00 (TDB)         Residual RMS= .3494         
   EC= .2228078944584026   QR= 1.133355399799004   TP= 2453371.5859943051      
   OM= 304.4010273379536   W=  178.665326776373    IN= 10.8291838260782        
  Equivalent ICRF heliocentric cartesian coordinates (au, au/d):
   X= 3.739742611161106E-01  Y= 9.771563321932180E-01  Z= 6.227690580154441E-01
  VX=-1.640089070798141E-02 VY= 3.657007337298757E-03 VZ=-8.820021479138533E-04
Asteroid physical parameters (km, seconds, rotational period in hours):        
   GM= .0004463            RAD= 8.42               ROTPER= 5.27                
   H= 10.4                 G= .460                 B-V= .921                   
                           ALBEDO= .250            STYP= S                     
*******************************************************************************
            JDTDB,            Calendar Date (TDB),                      X,                      Y,                      Z,                     VX,                     VY,                     VZ,                     LT,                     RG,                     RR,
**************************************************************************************************************************************************************************************************************************************************************************
$$SOE
2457969.500000000, A.D. 2017-Aug-04 00:00:00.0000, -1.820703997969393E+08, -6.887632755020073E+07, -3.618678731925178E+07,  4.502097816840088E+00, -2.659214799990886E+01, -2.156734983817563E+00,  6.604490120354499E+02,  1.979976327017791E+08,  5.504692363030147E+00,
2457970.500000000, A.D. 2017-Aug-05 00:00:00.0000, -1.816698362910774E+08, -7.116945587644285E+07, -3.637082143902224E+07,  4.769785753213334E+00, -2.648908746654461E+01, -2.103333071776230E+00,  6.620374043632336E+02,  1.984738207419937E+08,  5.518046119199550E+00,
2457971.500000000, A.D. 2017-Aug-06 00:00:00.0000, -1.812462535245577E+08, -7.345356685805508E+07, -3.655024666814299E+07,  5.034949221520801E+00, -2.638342252702666E+01, -2.050049002030239E+00,  6.636295308370911E+02,  1.989511282510383E+08,  5.530607510623549E+00,
2457972.500000000, A.D. 2017-Aug-07 00:00:00.0000, -1.807998700750180E+08, -7.572843789149415E+07, -3.672507352217023E+07,  5.297577677397631E+00, -2.627520904005114E+01, -1.996890465978824E+00,  6.652251644114090E+02,  1.994294871623504E+08,  5.542385657185767E+00,
2457973.500000000, A.D. 2017-Aug-08 00:00:00.0000, -1.803309053831254E+08, -7.799385117486881E+07, -3.689531317096775E+07,  5.557661682152216E+00, -2.616450229373330E+01, -1.943864918828769E+00,  6.668240806731403E+02,  1.999088301985910E+08,  5.553389706926540E+00,
2457974.500000000, A.D. 2017-Aug-09 00:00:00.0000, -1.798395796584741E+08, -8.024959365800053E+07, -3.706097741845613E+07,  5.815192869769686E+00, -2.605135699097112E+01, -1.890979583226393E+00,  6.684260578489444E+02,  2.003890908737852E+08,  5.563628829313542E+00,
2457975.500000000, A.D. 2017-Aug-10 00:00:00.0000, -1.793261137883185E+08, -8.249545699127176E+07, -3.722207868267912E+07,  6.070163914267528E+00, -2.593582723600468E+01, -1.838241452962912E+00,  6.700308768104229E+02,  2.008702034948919E+08,  5.573112208778199E+00,
2457976.500000000, A.D. 2017-Aug-11 00:00:00.0000, -1.787907292491119E+08, -8.473123747336295E+07, -3.737862997619303E+07,  6.322568497430794E+00, -2.581796652213025E+01, -1.785657296744368E+00,  6.716383210775342E+02,  2.013521031628272E+08,  5.581849038513691E+00,
2457977.500000000, A.D. 2017-Aug-12 00:00:00.0000, -1.782336480208140E+08, -8.695673599797636E+07, -3.753064488678420E+07,  6.572401276952742E+00, -2.569782772052844E+01, -1.733233662017698E+00,  6.732481768202546E+02,  2.018347257729627E+08,  5.589848514529842E+00,
2457978.500000000, A.D. 2017-Aug-13 00:00:00.0000, -1.776550925039337E+08, -8.917175799964169E+07, -3.767813755851938E+07,  6.819657855003891E+00, -2.557546307016582E+01, -1.680976878845033E+00,  6.748602328585634E+02,  2.023180080151211E+08,  5.597119829960388E+00,
2457979.500000000, A.D. 2017-Aug-14 00:00:00.0000, -1.770552854392681E+08, -9.137611339869362E+07, -3.782112267313239E+07,  7.064334747250714E+00, -2.545092416873009E+01, -1.628893063818461E+00,  6.764742806608251E+02,  2.028018873730906E+08,  5.603672169617599E+00,
2457980.500000000, A.D. 2017-Aug-15 00:00:00.0000, -1.764344498302976E+08, -9.356961654550977E+07, -3.795961543175074E+07,  7.306429352343246E+00, -2.532426196455882E+01, -1.576988124008082E+00,  6.780901143406337E+02,  2.032863021236796E+08,  5.609514704789067E+00,
2457981.500000000, A.D. 2017-Aug-16 00:00:00.0000, -1.757928088681973E+08, -9.575208616409272E+07, -3.809363153696454E+07,  7.545939921888777E+00, -2.519552674952301E+01, -1.525267760936469E+00,  6.797075306521948E+02,  2.037711913353318E+08,  5.614656588271542E+00,
2457982.500000000, A.D. 2017-Aug-17 00:00:00.0000, -1.751305858594204E+08, -9.792334529507688E+07, -3.822318717523940E+07,  7.782865530927102E+00, -2.506476815282656E+01, -1.473737474572919E+00,  6.813263289843089E+02,  2.042564948663226E+08,  5.619106949636250E+00,
2457983.500000000, A.D. 2017-Aug-18 00:00:00.0000, -1.744480041558105E+08, -1.000832212382380E+08, -3.834829899967554E+07,  8.017206048921162E+00, -2.493203513568381E+01, -1.422402567341411E+00,  6.829463113530219E+02,  2.047421533625557E+08,  5.622874890720170E+00,
2457984.500000000, A.D. 2017-Aug-19 00:00:00.0000, -1.737452870871977E+08, -1.022315454945792E+08, -3.846898411311309E+07,  8.248962111275123E+00, -2.479737598683793E+01, -1.371268148136368E+00,  6.845672823930090E+02,  2.052281082549803E+08,  5.625969481337614E+00,
2457985.500000000, A.D. 2017-Aug-20 00:00:00.0000, -1.730226578964327E+08, -1.043681537080652E+08, -3.858526005158496E+07,  8.478135091390660E+00, -2.466083831888316E+01, -1.320339136340751E+00,  6.861890493477553E+02,  2.057143017566468E+08,  5.628399755206117E+00,
2457986.500000000, A.D. 2017-Aug-21 00:00:00.0000, -1.722803396768109E+08, -1.064928856070718E+08, -3.869714476811633E+07,  8.704727073270613E+00, -2.452246906535535E+01, -1.269620265841315E+00,  6.878114220585883E+02,  2.062006768594196E+08,  5.630174706080804E+00,
2457987.500000000, A.D. 2017-Aug-22 00:00:00.0000, -1.715185553118403E+08, -1.086055849456159E+08, -3.880465661687110E+07,  8.928740824677964E+00, -2.438231447855510E+01, -1.219116089036129E+00,  6.894342129526299E+02,  2.066871773303643E+08,  5.631303284090960E+00,
2457988.500000000, A.D. 2017-Aug-23 00:00:00.0000, -1.707375274173036E+08, -1.107060994444282E+08, -3.890781433764399E+07,  9.150179770856914E+00, -2.424042012806914E+01, -1.168830980829895E+00,  6.910572370297183E+02,  2.071737477078279E+08,  5.631794392272473E+00,
2457989.500000000, A.D. 2017-Aug-24 00:00:00.0000, -1.699374782855671E+08, -1.127942807319269E+08, -3.900663704069696E+07,  9.369047968821503E+00, -2.409683089995573E+01, -1.118769142612660E+00,  6.926803118483590E+02,  2.076603332972260E+08,  5.631656883289725E+00,
2457990.500000000, A.D. 2017-Aug-25 00:00:00.0000, -1.691186298320856E+08, -1.148699842851484E+08, -3.910114419193896E+07,  9.585350082216525E+00, -2.395159099656087E+01, -1.068934606218093E+00,  6.943032575107576E+02,  2.081468801665570E+08,  5.630899556339944E+00,
